[{"OBJECT_NAME":"STARLINK-4645","OBJECT_ID":"2022-107AV","EPOCH":"2026-03-09T19:58:04.893312","MEAN_MOTION":15.088425,"ECCENTRICITY":0.0001382,"INCLINATION":53.2167,"RA_OF_ASC_NODE":263.572,"ARG_OF_PERICENTER":88.4399,"MEAN_ANOMALY":271.6752,"EPHEMERIS_TYPE":0,"CLASSIFICATION_TYPE":"U","NORAD_CAT_ID":53743,"ELEMENT_SET_NO":999,"REV_AT_EPOCH":19461,"BSTAR":1.2715346e-5,"MEAN_MOTION_DOT":-8.6e-7,"MEAN_MOTION_DDOT":0},{"OBJECT_NAME":"LEMUR-2-KREMPEL-BRO1","OBJECT_ID":"2025-061G","EPOCH":"2026-03-09T22:19:45.751296","MEAN_MOTION":15.13773226,"ECCENTRICITY":0.0017497,"INCLINATION":97.5535,"RA_OF_ASC_NODE":45.5283,"ARG_OF_PERICENTER":227.946,"MEAN_ANOMALY":132.0284,"EPHEMERIS_TYPE":0,"CLASSIFICATION_TYPE":"U","NORAD_CAT_ID":63357,"ELEMENT_SET_NO":999,"REV_AT_EPOCH":5261,"BSTAR":0.00031891713,"MEAN_MOTION_DOT":5.707e-5,"MEAN_MOTION_DDOT":0}]
